[{"OBJECT_NAME":"STARLINK-30494","OBJECT_ID":"2023-151G","EPOCH":"2026-03-09T08:39:06.366240","MEAN_MOTION":15.28417441,"ECCENTRICITY":0.00011553,"INCLINATION":43.0027,"RA_OF_ASC_NODE":192.4566,"ARG_OF_PERICENTER":241.5536,"MEAN_ANOMALY":118.52,"EPHEMERIS_TYPE":0,"CLASSIFICATION_TYPE":"U","NORAD_CAT_ID":57970,"ELEMENT_SET_NO":999,"REV_AT_EPOCH":13740,"BSTAR":-3.569111e-5,"MEAN_MOTION_DOT":-1.272e-5,"MEAN_MOTION_DDOT":0},{"OBJECT_NAME":"STARLINK-34692","OBJECT_ID":"2025-216AB","EPOCH":"2026-03-09T23:20:50.081568","MEAN_MOTION":15.30199979,"ECCENTRICITY":0.00011876,"INCLINATION":53.1605,"RA_OF_ASC_NODE":331.8024,"ARG_OF_PERICENTER":117.604,"MEAN_ANOMALY":242.5082,"EPHEMERIS_TYPE":0,"CLASSIFICATION_TYPE":"U","NORAD_CAT_ID":65759,"ELEMENT_SET_NO":999,"REV_AT_EPOCH":2654,"BSTAR":0.0005758514,"MEAN_MOTION_DOT":0.00016734,"MEAN_MOTION_DDOT":0}]
